[
    {
        "Altitude(m)": 555601.0836394352,
        "Argument of Periapsis(deg)": 0.033114955553567506,
        "Eccentricity": 0.0,
        "Inclination(deg)": 53.0,
        "Latitude(deg)": 33.25977015419508,
        "Longitude(deg)": 40.453297696295444,
        "Mean Anomaly(deg)": 43.185364337887826,
        "RAAN(deg)": 114.95071684264009,
        "Satellite Name": "Starlink Shell 1 527",
        "Satellite Number": 527,
        "Semi-Major Axis(m)": 6931778.249405717,
        "Time(s)": 950
    },
    {
        "Altitude(m)": 555680.9645909907,
        "Argument of Periapsis(deg)": 0.03346353403307874,
        "Eccentricity": 0.0,
        "Inclination(deg)": 53.0,
        "Latitude(deg)": 33.69627899309942,
        "Longitude(deg)": 40.95238930689584,
        "Mean Anomaly(deg)": 43.8121955414446,
        "RAAN(deg)": 114.95019807256261,
        "Satellite Name": "Starlink Shell 1 527",
        "Satellite Number": 527,
        "Semi-Major Axis(m)": 6931778.249405717,
        "Time(s)": 960
    },
    {
        "Altitude(m)": 555761.4526505817,
        "Argument of Periapsis(deg)": 0.03381211251258998,
        "Eccentricity": 0.0,
        "Inclination(deg)": 53.0,
        "Latitude(deg)": 34.13036954496443,
        "Longitude(deg)": 41.45695282551091,
        "Mean Anomaly(deg)": 44.43902674500138,
        "RAAN(deg)": 114.94967930248514,
        "Satellite Name": "Starlink Shell 1 527",
        "Satellite Number": 527,
        "Semi-Major Axis(m)": 6931778.249405717,
        "Time(s)": 970
    },
    {
        "Altitude(m)": 555842.4922211652,
        "Argument of Periapsis(deg)": 0.034160690992101214,
        "Eccentricity": 0.0,
        "Inclination(deg)": 53.0,
        "Latitude(deg)": 34.56197811029955,
        "Longitude(deg)": 41.96710359520855,
        "Mean Anomaly(deg)": 45.06585794855801,
        "RAAN(deg)": 114.94916053240766,
        "Satellite Name": "Starlink Shell 1 527",
        "Satellite Number": 527,
        "Semi-Major Axis(m)": 6931778.249405717,
        "Time(s)": 980
    },
    {
        "Altitude(m)": 555924.0276323329,
        "Argument of Periapsis(deg)": 0.034509269471612446,
        "Eccentricity": 0.0,
        "Inclination(deg)": 53.0,
        "Latitude(deg)": 34.991039517517606,
        "Longitude(deg)": 42.48295839234732,
        "Mean Anomaly(deg)": 45.69268915211476,
        "RAAN(deg)": 114.94864176233021,
        "Satellite Name": "Starlink Shell 1 527",
        "Satellite Number": 527,
        "Semi-Major Axis(m)": 6931778.249405717,
        "Time(s)": 990
    }
]